{
    "links": {
        "self": "http://www.neowsapp.com/rest/v1/neo/3465237?api_key=iIulBulltgU6a56xZRHN4H3l9WmuAYTsLGpBGhQ2"
    },
    "id": "3465237",
    "neo_reference_id": "3465237",
    "name": "(2009 OX5)",
    "designation": "2009 OX5",
    "nasa_jpl_url": "http://ssd.jpl.nasa.gov/sbdb.cgi?sstr=3465237",
    "absolute_magnitude_h": 19.7,
    "estimated_diameter": {
        "kilometers": {
            "estimated_diameter_min": 0.3051792326,
            "estimated_diameter_max": 0.6824015094
        },
        "meters": {
            "estimated_diameter_min": 305.1792325939,
            "estimated_diameter_max": 682.4015094011
        },
        "miles": {
            "estimated_diameter_min": 0.1896295249,
            "estimated_diameter_max": 0.4240245083
        },
        "feet": {
            "estimated_diameter_min": 1001.2442334633,
            "estimated_diameter_max": 2238.8501681036
        }
    },
    "is_potentially_hazardous_asteroid": false,
    "close_approach_data": [
        {
            "close_approach_date": "2009-07-26",
            "close_approach_date_full": "2009-Jul-26 17:42",
            "epoch_date_close_approach": 1248630120000,
            "relative_velocity": {
                "kilometers_per_second": "24.270888536",
                "kilometers_per_hour": "87375.1987295928",
                "miles_per_hour": "54291.5505661739"
            },
            "miss_distance": {
                "astronomical": "0.0916945416",
                "lunar": "35.6691766824",
                "kilometers": "13717308.113986392",
                "miles": "8523540.0202285296"
            },
            "orbiting_body": "Earth"
        }
    ],
    "orbital_data": {
        "orbit_id": "12",
        "orbit_determination_date": "2017-04-06 09:00:19",
        "first_observation_date": "2009-07-27",
        "last_observation_date": "2009-08-17",
        "data_arc_in_days": 21,
        "observations_used": 80,
        "orbit_uncertainty": "8",
        "minimum_orbit_intersection": ".0541929",
        "jupiter_tisserand_invariant": "3.657",
        "epoch_osculation": "2455042.5",
        "eccentricity": ".4491931005760654",
        "semi_major_axis": "1.817124794949997",
        "inclination": "41.29102011217483",
        "ascending_node_longitude": "121.8141632564849",
        "orbital_period": "894.6961294189286",
        "perihelion_distance": "1.000884874172761",
        "perihelion_argument": "141.6219347479709",
        "aphelion_distance": "2.633364715727234",
        "perihelion_time": "2455007.888648473474",
        "mean_anomaly": "13.92661277929269",
        "mean_motion": ".4023712500397273",
        "equinox": "J2000",
        "orbit_class": {
            "orbit_class_type": "APO",
            "orbit_class_description": "Near-Earth asteroid orbits which cross the Earth’s orbit similar to that of 1862 Apollo",
            "orbit_class_range": "a (semi-major axis) > 1.0 AU; q (perihelion) < 1.017 AU"
        }
    },
    "is_sentry_object": false
}